{
  "type": "FeatureCollection",
  "features": [
    {
      "type": "Feature",
      "properties": {
        "norad_id": 58701,
        "name": "TIANMU-1 16",
        "group": "weather",
        "lat": 20.47588743620569,
        "lon": -12.086053901576404,
        "alt_km": 495.4408647713517,
        "timestamp": "2025-12-10T05:46:13.440907+00:00",
        "meta_object_name": "TIANMU-1 16",
        "meta_object_id": "2024-004B",
        "meta_epoch": "2025-12-09T19:37:16.591296",
        "meta_mean_motion": 15.24370836,
        "meta_eccentricity": 0.0004613,
        "meta_inclination": 97.457,
        "meta_ra_of_asc_node": 164.6898,
        "meta_arg_of_pericenter": 309.2998,
        "meta_mean_anomaly": 50.783,
        "meta_ephemeris_type": 0,
        "meta_classification_type": "U",
        "meta_norad_cat_id": 58701,
        "meta_element_set_no": 999,
        "meta_rev_at_epoch": 10690,
        "meta_bstar": 0.00042548,
        "meta_mean_motion_dot": 0.00010356,
        "meta_mean_motion_ddot": 0,
        "tle_line1": "1 58701U 24004B   25343.81755314  .00010356  00000+0  42548-3 0  9992",
        "tle_line2": "2 58701  97.4570 164.6898 0004613 309.2998  50.7830 15.24370836106909"
      },
      "geometry": {
        "type": "Point",
        "coordinates": [
          -12.086053901576404,
          20.47588743620569
        ]
      }
    },
    {
      "type": "Feature",
      "properties": {
        "norad_id": 58702,
        "name": "TIANMU-1 17",
        "group": "weather",
        "lat": -62.41790807970668,
        "lon": -29.008405789210293,
        "alt_km": 498.74787106939675,
        "timestamp": "2025-12-10T05:46:13.440920+00:00",
        "meta_object_name": "TIANMU-1 17",
        "meta_object_id": "2024-004C",
        "meta_epoch": "2025-12-09T20:49:44.393952",
        "meta_mean_motion": 15.24416725,
        "meta_eccentricity": 0.0003832,
        "meta_inclination": 97.4604,
        "meta_ra_of_asc_node": 165.1485,
        "meta_arg_of_pericenter": 312.8291,
        "meta_mean_anomaly": 47.2624,
        "meta_ephemeris_type": 0,
        "meta_classification_type": "U",
        "meta_norad_cat_id": 58702,
        "meta_element_set_no": 999,
        "meta_rev_at_epoch": 10690,
        "meta_bstar": 0.00045271,
        "meta_mean_motion_dot": 0.00011039,
        "meta_mean_motion_ddot": 0,
        "tle_line1": "1 58702U 24004C   25343.86787493  .00011039  00000+0  45271-3 0  9996",
        "tle_line2": "2 58702  97.4604 165.1485 0003832 312.8291  47.2624 15.24416725106904"
      },
      "geometry": {
        "type": "Point",
        "coordinates": [
          -29.008405789210293,
          -62.41790807970668
        ]
      }
    },
    {
      "type": "Feature",
      "properties": {
        "norad_id": 58703,
        "name": "TIANMU-1 18",
        "group": "weather",
        "lat": -24.899258991214626,
        "lon": 169.20217974478882,
        "alt_km": 496.19806083798903,
        "timestamp": "2025-12-10T05:46:13.440934+00:00",
        "meta_object_name": "TIANMU-1 18",
        "meta_object_id": "2024-004D",
        "meta_epoch": "2025-12-09T20:25:40.790784",
        "meta_mean_motion": 15.24405274,
        "meta_eccentricity": 0.0003186,
        "meta_inclination": 97.4621,
        "meta_ra_of_asc_node": 165.3266,
        "meta_arg_of_pericenter": 314.0648,
        "meta_mean_anomaly": 46.0327,
        "meta_ephemeris_type": 0,
        "meta_classification_type": "U",
        "meta_norad_cat_id": 58703,
        "meta_element_set_no": 999,
        "meta_rev_at_epoch": 10690,
        "meta_bstar": 0.00043977,
        "meta_mean_motion_dot": 0.00010716,
        "meta_mean_motion_ddot": 0,
        "tle_line1": "1 58703U 24004D   25343.85116656  .00010716  00000+0  43977-3 0  9995",
        "tle_line2": "2 58703  97.4621 165.3266 0003186 314.0648  46.0327 15.24405274106909"
      },
      "geometry": {
        "type": "Point",
        "coordinates": [
          169.20217974478882,
          -24.899258991214626
        ]
      }
    },
    {
      "type": "Feature",
      "properties": {
        "norad_id": 58990,
        "name": "INSAT-3DS",
        "group": "weather",
        "lat": -0.009044546239046374,
        "lon": -112.16004182850494,
        "alt_km": 35780.140811332276,
        "timestamp": "2025-12-10T05:46:13.440947+00:00",
        "meta_object_name": "INSAT-3DS",
        "meta_object_id": "2024-033A",
        "meta_epoch": "2025-12-09T17:50:38.679072",
        "meta_mean_motion": 1.00269592,
        "meta_eccentricity": 0.0001628,
        "meta_inclination": 0.0271,
        "meta_ra_of_asc_node": 105.5537,
        "meta_arg_of_pericenter": 159.6721,
        "meta_mean_anomaly": 163.2421,
        "meta_ephemeris_type": 0,
        "meta_classification_type": "U",
        "meta_norad_cat_id": 58990,
        "meta_element_set_no": 999,
        "meta_rev_at_epoch": 4516,
        "meta_bstar": 0,
        "meta_mean_motion_dot": -1.53e-06,
        "meta_mean_motion_ddot": 0,
        "tle_line1": "1 58990U 24033A   25343.74350323 -.00000153  00000+0  00000+0 0  9995",
        "tle_line2": "2 58990   0.0271 105.5537 0001628 159.6721 163.2421  1.00269592 45166"
      },
      "geometry": {
        "type": "Point",
        "coordinates": [
          -112.16004182850494,
          -0.009044546239046374
        ]
      }
    },
    {
      "type": "Feature",
      "properties": {
        "norad_id": 59051,
        "name": "METEOR-M2 4",
        "group": "weather",
        "lat": -13.72551069930927,
        "lon": -56.67409770150523,
        "alt_km": 816.8804899107472,
        "timestamp": "2025-12-10T05:46:13.440958+00:00",
        "meta_object_name": "METEOR-M2 4",
        "meta_object_id": "2024-039A",
        "meta_epoch": "2025-12-09T21:23:39.240960",
        "meta_mean_motion": 14.22400641,
        "meta_eccentricity": 0.0007199,
        "meta_inclination": 98.6762,
        "meta_ra_of_asc_node": 300.8451,
        "meta_arg_of_pericenter": 6.6561,
        "meta_mean_anomaly": 353.4712,
        "meta_ephemeris_type": 0,
        "meta_classification_type": "U",
        "meta_norad_cat_id": 59051,
        "meta_element_set_no": 999,
        "meta_rev_at_epoch": 9235,
        "meta_bstar": 6.5206e-05,
        "meta_mean_motion_dot": 1.02e-06,
        "meta_mean_motion_ddot": 0,
        "tle_line1": "1 59051U 24039A   25343.89142640  .00000102  00000+0  65206-4 0  9994",
        "tle_line2": "2 59051  98.6762 300.8451 0007199   6.6561 353.4712 14.22400641 92359"
      },
      "geometry": {
        "type": "Point",
        "coordinates": [
          -56.67409770150523,
          -13.72551069930927
        ]
      }
    },
    {
      "type": "Feature",
      "properties": {
        "norad_id": 60133,
        "name": "GOES 19",
        "group": "weather",
        "lat": -0.00030220752530126644,
        "lon": 90.59884308665677,
        "alt_km": 35790.93844193053,
        "timestamp": "2025-12-10T05:46:13.440971+00:00",
        "meta_object_name": "GOES 19",
        "meta_object_id": "2024-119A",
        "meta_epoch": "2025-12-09T12:33:25.293024",
        "meta_mean_motion": 1.00271399,
        "meta_eccentricity": 0.0001348,
        "meta_inclination": 0.0188,
        "meta_ra_of_asc_node": 159.4399,
        "meta_arg_of_pericenter": 145.9183,
        "meta_mean_anomaly": 246.3286,
        "meta_ephemeris_type": 0,
        "meta_classification_type": "U",
        "meta_norad_cat_id": 60133,
        "meta_element_set_no": 999,
        "meta_rev_at_epoch": 506,
        "meta_bstar": 0,
        "meta_mean_motion_dot": -2.46e-06,
        "meta_mean_motion_ddot": 0,
        "tle_line1": "1 60133U 24119A   25343.52320941 -.00000246  00000+0  00000+0 0  9994",
        "tle_line2": "2 60133   0.0188 159.4399 0001348 145.9183 246.3286  1.00271399  5063"
      },
      "geometry": {
        "type": "Point",
        "coordinates": [
          90.59884308665677,
          -0.00030220752530126644
        ]
      }
    },
    {
      "type": "Feature",
      "properties": {
        "norad_id": 65815,
        "name": "FENGYUN 3H",
        "group": "weather",
        "lat": -66.11045469489085,
        "lon": 83.76358323565803,
        "alt_km": 833.3010545862935,
        "timestamp": "2025-12-10T05:46:13.440982+00:00",
        "meta_object_name": "FENGYUN 3H",
        "meta_object_id": "2025-219A",
        "meta_epoch": "2025-12-09T20:09:06.344064",
        "meta_mean_motion": 14.19903525,
        "meta_eccentricity": 6.03e-05,
        "meta_inclination": 98.6581,
        "meta_ra_of_asc_node": 283.4931,
        "meta_arg_of_pericenter": 86.0818,
        "meta_mean_anomaly": 274.0427,
        "meta_ephemeris_type": 0,
        "meta_classification_type": "U",
        "meta_norad_cat_id": 65815,
        "meta_element_set_no": 999,
        "meta_rev_at_epoch": 1051,
        "meta_bstar": 0.00011413,
        "meta_mean_motion_dot": 1.99e-06,
        "meta_mean_motion_ddot": 0,
        "tle_line1": "1 65815U 25219A   25343.83965676  .00000199  00000+0  11413-3 0  9992",
        "tle_line2": "2 65815  98.6581 283.4931 0000603  86.0818 274.0427 14.19903525 10516"
      },
      "geometry": {
        "type": "Point",
        "coordinates": [
          83.76358323565803,
          -66.11045469489085
        ]
      }
    }
  ]
}